GLOBALSTAR M063         
1 26081U 00008A   25322.72515031 -.00000058  00000+0  36105-3 0  9994
2 26081  51.9967  64.5688 0004145 241.3966 271.3572 11.86177968175912
GLOBALSTAR M062         
1 26082U 00008B   25322.88169806 -.00000103  00000+0 -34937-4 0  9991
2 26082  51.9874   0.8678 0007334  83.8297  87.6455 12.43477217515865
GLOBALSTAR M060         
1 26083U 00008C   25322.95381552 -.00000112  00000+0 -20487-3 0  9998
2 26083  52.0044 342.5606 0003435  80.9999 312.5476 12.17667854171229
GLOBALSTAR M064         
1 26084U 00008D   25322.80226746 -.00000030  00000+0  75787-3 0  9997
2 26084  51.9991 161.3745 0001907  35.2635 324.8323 11.88539088185486
GLOBALSTAR M065         
1 31571U 07020A   25322.84321245 -.00000062  00000+0  23289-3 0  9994
2 31571  51.9873 115.5380 0009032 291.8611 215.4165 12.62014306852933
GLOBALSTAR M069         
1 31573U 07020C   25322.92764186 -.00000077  00000+0  14779-3 0  9990
2 31573  52.0004 127.2394 0002865  84.5529  82.4301 12.23463813853067
GLOBALSTAR M072         
1 31574U 07020D   25322.92544459 -.00000081  00000+0  36725-4 0  9991
2 31574  51.9946 300.0192 0000900 283.1702  99.9768 11.91653398849918
GLOBALSTAR M071         
1 31576U 07020F   25322.96976789  .00000006  00000+0  95898-3 0  9993
2 31576  52.0028 157.1034 0001985  76.7448  71.0212 12.18261835513808
