<?xml version="1.0" encoding="UTF-8"?>
<ndm xmlns:xsi="http://www.w3.org/2001/XMLSchema-instance" xsi:noNamespaceSchemaLocation="https://sanaregistry.org/r/ndmxml_unqualified/ndmxml-2.0.0-master-2.0.xsd">
<omm id="CCSDS_OMM_VERS" version="2.0">
<header><CREATION_DATE/><ORIGINATOR/></header><body><segment><metadata><OBJECT_NAME>GLOBALSTAR M063</OBJECT_NAME><OBJECT_ID>2000-008A</OBJECT_ID><CENTER_NAME>EARTH</CENTER_NAME><REF_FRAME>TEME</REF_FRAME><TIME_SYSTEM>UTC</TIME_SYSTEM><MEAN_ELEMENT_THEORY>SGP4</MEAN_ELEMENT_THEORY></metadata><data><meanElements><EPOCH>2025-11-18T17:24:12.986784</EPOCH><MEAN_MOTION>11.86177968</MEAN_MOTION><ECCENTRICITY>.00041459</ECCENTRICITY><INCLINATION>51.9967</INCLINATION><RA_OF_ASC_NODE>64.5688</RA_OF_ASC_NODE><ARG_OF_PERICENTER>241.3966</ARG_OF_PERICENTER><MEAN_ANOMALY>271.3572</MEAN_ANOMALY></meanElements><tleParameters><EPHEMERIS_TYPE>0</EPHEMERIS_TYPE><CLASSIFICATION_TYPE>U</CLASSIFICATION_TYPE><NORAD_CAT_ID>26081</NORAD_CAT_ID><ELEMENT_SET_NO>999</ELEMENT_SET_NO><REV_AT_EPOCH>17591</REV_AT_EPOCH><BSTAR>.36105476E-3</BSTAR><MEAN_MOTION_DOT>-.58E-6</MEAN_MOTION_DOT><MEAN_MOTION_DDOT>0</MEAN_MOTION_DDOT></tleParameters></data></segment></body></omm>
<omm id="CCSDS_OMM_VERS" version="2.0">
<header><CREATION_DATE/><ORIGINATOR/></header><body><segment><metadata><OBJECT_NAME>GLOBALSTAR M062</OBJECT_NAME><OBJECT_ID>2000-008B</OBJECT_ID><CENTER_NAME>EARTH</CENTER_NAME><REF_FRAME>TEME</REF_FRAME><TIME_SYSTEM>UTC</TIME_SYSTEM><MEAN_ELEMENT_THEORY>SGP4</MEAN_ELEMENT_THEORY></metadata><data><meanElements><EPOCH>2025-11-18T21:09:38.712384</EPOCH><MEAN_MOTION>12.43477217</MEAN_MOTION><ECCENTRICITY>.00073347</ECCENTRICITY><INCLINATION>51.9874</INCLINATION><RA_OF_ASC_NODE>0.8678</RA_OF_ASC_NODE><ARG_OF_PERICENTER>83.8297</ARG_OF_PERICENTER><MEAN_ANOMALY>87.6455</MEAN_ANOMALY></meanElements><tleParameters><EPHEMERIS_TYPE>0</EPHEMERIS_TYPE><CLASSIFICATION_TYPE>U</CLASSIFICATION_TYPE><NORAD_CAT_ID>26082</NORAD_CAT_ID><ELEMENT_SET_NO>999</ELEMENT_SET_NO><REV_AT_EPOCH>51586</REV_AT_EPOCH><BSTAR>-.34936891E-4</BSTAR><MEAN_MOTION_DOT>-.103E-5</MEAN_MOTION_DOT><MEAN_MOTION_DDOT>0</MEAN_MOTION_DDOT></tleParameters></data></segment></body></omm>
<omm id="CCSDS_OMM_VERS" version="2.0">
<header><CREATION_DATE/><ORIGINATOR/></header><body><segment><metadata><OBJECT_NAME>GLOBALSTAR M060</OBJECT_NAME><OBJECT_ID>2000-008C</OBJECT_ID><CENTER_NAME>EARTH</CENTER_NAME><REF_FRAME>TEME</REF_FRAME><TIME_SYSTEM>UTC</TIME_SYSTEM><MEAN_ELEMENT_THEORY>SGP4</MEAN_ELEMENT_THEORY></metadata><data><meanElements><EPOCH>2025-11-18T22:53:29.660928</EPOCH><MEAN_MOTION>12.17667854</MEAN_MOTION><ECCENTRICITY>.00034352</ECCENTRICITY><INCLINATION>52.0044</INCLINATION><RA_OF_ASC_NODE>342.5606</RA_OF_ASC_NODE><ARG_OF_PERICENTER>80.9999</ARG_OF_PERICENTER><MEAN_ANOMALY>312.5476</MEAN_ANOMALY></meanElements><tleParameters><EPHEMERIS_TYPE>0</EPHEMERIS_TYPE><CLASSIFICATION_TYPE>U</CLASSIFICATION_TYPE><NORAD_CAT_ID>26083</NORAD_CAT_ID><ELEMENT_SET_NO>999</ELEMENT_SET_NO><REV_AT_EPOCH>17122</REV_AT_EPOCH><BSTAR>-.20486636E-3</BSTAR><MEAN_MOTION_DOT>-.112E-5</MEAN_MOTION_DOT><MEAN_MOTION_DDOT>0</MEAN_MOTION_DDOT></tleParameters></data></segment></body></omm>
<omm id="CCSDS_OMM_VERS" version="2.0">
<header><CREATION_DATE/><ORIGINATOR/></header><body><segment><metadata><OBJECT_NAME>GLOBALSTAR M064</OBJECT_NAME><OBJECT_ID>2000-008D</OBJECT_ID><CENTER_NAME>EARTH</CENTER_NAME><REF_FRAME>TEME</REF_FRAME><TIME_SYSTEM>UTC</TIME_SYSTEM><MEAN_ELEMENT_THEORY>SGP4</MEAN_ELEMENT_THEORY></metadata><data><meanElements><EPOCH>2025-11-18T19:15:15.908544</EPOCH><MEAN_MOTION>11.88539088</MEAN_MOTION><ECCENTRICITY>.00019071</ECCENTRICITY><INCLINATION>51.9991</INCLINATION><RA_OF_ASC_NODE>161.3745</RA_OF_ASC_NODE><ARG_OF_PERICENTER>35.2635</ARG_OF_PERICENTER><MEAN_ANOMALY>324.8323</MEAN_ANOMALY></meanElements><tleParameters><EPHEMERIS_TYPE>0</EPHEMERIS_TYPE><CLASSIFICATION_TYPE>U</CLASSIFICATION_TYPE><NORAD_CAT_ID>26084</NORAD_CAT_ID><ELEMENT_SET_NO>999</ELEMENT_SET_NO><REV_AT_EPOCH>18548</REV_AT_EPOCH><BSTAR>.75787483E-3</BSTAR><MEAN_MOTION_DOT>-.3E-6</MEAN_MOTION_DOT><MEAN_MOTION_DDOT>0</MEAN_MOTION_DDOT></tleParameters></data></segment></body></omm>
<omm id="CCSDS_OMM_VERS" version="2.0">
<header><CREATION_DATE/><ORIGINATOR/></header><body><segment><metadata><OBJECT_NAME>GLOBALSTAR M065</OBJECT_NAME><OBJECT_ID>2007-020A</OBJECT_ID><CENTER_NAME>EARTH</CENTER_NAME><REF_FRAME>TEME</REF_FRAME><TIME_SYSTEM>UTC</TIME_SYSTEM><MEAN_ELEMENT_THEORY>SGP4</MEAN_ELEMENT_THEORY></metadata><data><meanElements><EPOCH>2025-11-18T20:14:13.555680</EPOCH><MEAN_MOTION>12.62014306</MEAN_MOTION><ECCENTRICITY>.00090322</ECCENTRICITY><INCLINATION>51.9873</INCLINATION><RA_OF_ASC_NODE>115.5380</RA_OF_ASC_NODE><ARG_OF_PERICENTER>291.8611</ARG_OF_PERICENTER><MEAN_ANOMALY>215.4165</MEAN_ANOMALY></meanElements><tleParameters><EPHEMERIS_TYPE>0</EPHEMERIS_TYPE><CLASSIFICATION_TYPE>U</CLASSIFICATION_TYPE><NORAD_CAT_ID>31571</NORAD_CAT_ID><ELEMENT_SET_NO>999</ELEMENT_SET_NO><REV_AT_EPOCH>85293</REV_AT_EPOCH><BSTAR>.23288646E-3</BSTAR><MEAN_MOTION_DOT>-.62E-6</MEAN_MOTION_DOT><MEAN_MOTION_DDOT>0</MEAN_MOTION_DDOT></tleParameters></data></segment></body></omm>
<omm id="CCSDS_OMM_VERS" version="2.0">
<header><CREATION_DATE/><ORIGINATOR/></header><body><segment><metadata><OBJECT_NAME>GLOBALSTAR M069</OBJECT_NAME><OBJECT_ID>2007-020C</OBJECT_ID><CENTER_NAME>EARTH</CENTER_NAME><REF_FRAME>TEME</REF_FRAME><TIME_SYSTEM>UTC</TIME_SYSTEM><MEAN_ELEMENT_THEORY>SGP4</MEAN_ELEMENT_THEORY></metadata><data><meanElements><EPOCH>2025-11-18T22:15:48.256704</EPOCH><MEAN_MOTION>12.23463813</MEAN_MOTION><ECCENTRICITY>.00028656</ECCENTRICITY><INCLINATION>52.0004</INCLINATION><RA_OF_ASC_NODE>127.2394</RA_OF_ASC_NODE><ARG_OF_PERICENTER>84.5529</ARG_OF_PERICENTER><MEAN_ANOMALY>82.4301</MEAN_ANOMALY></meanElements><tleParameters><EPHEMERIS_TYPE>0</EPHEMERIS_TYPE><CLASSIFICATION_TYPE>U</CLASSIFICATION_TYPE><NORAD_CAT_ID>31573</NORAD_CAT_ID><ELEMENT_SET_NO>999</ELEMENT_SET_NO><REV_AT_EPOCH>85306</REV_AT_EPOCH><BSTAR>.14778843E-3</BSTAR><MEAN_MOTION_DOT>-.77E-6</MEAN_MOTION_DOT><MEAN_MOTION_DDOT>0</MEAN_MOTION_DDOT></tleParameters></data></segment></body></omm>
<omm id="CCSDS_OMM_VERS" version="2.0">
<header><CREATION_DATE/><ORIGINATOR/></header><body><segment><metadata><OBJECT_NAME>GLOBALSTAR M072</OBJECT_NAME><OBJECT_ID>2007-020D</OBJECT_ID><CENTER_NAME>EARTH</CENTER_NAME><REF_FRAME>TEME</REF_FRAME><TIME_SYSTEM>UTC</TIME_SYSTEM><MEAN_ELEMENT_THEORY>SGP4</MEAN_ELEMENT_THEORY></metadata><data><meanElements><EPOCH>2025-11-18T22:12:38.412576</EPOCH><MEAN_MOTION>11.91653398</MEAN_MOTION><ECCENTRICITY>.00009001</ECCENTRICITY><INCLINATION>51.9946</INCLINATION><RA_OF_ASC_NODE>300.0192</RA_OF_ASC_NODE><ARG_OF_PERICENTER>283.1702</ARG_OF_PERICENTER><MEAN_ANOMALY>99.9768</MEAN_ANOMALY></meanElements><tleParameters><EPHEMERIS_TYPE>0</EPHEMERIS_TYPE><CLASSIFICATION_TYPE>U</CLASSIFICATION_TYPE><NORAD_CAT_ID>31574</NORAD_CAT_ID><ELEMENT_SET_NO>999</ELEMENT_SET_NO><REV_AT_EPOCH>84991</REV_AT_EPOCH><BSTAR>.36725364E-4</BSTAR><MEAN_MOTION_DOT>-.81E-6</MEAN_MOTION_DOT><MEAN_MOTION_DDOT>0</MEAN_MOTION_DDOT></tleParameters></data></segment></body></omm>
<omm id="CCSDS_OMM_VERS" version="2.0">
<header><CREATION_DATE/><ORIGINATOR/></header><body><segment><metadata><OBJECT_NAME>GLOBALSTAR M071</OBJECT_NAME><OBJECT_ID>2007-020F</OBJECT_ID><CENTER_NAME>EARTH</CENTER_NAME><REF_FRAME>TEME</REF_FRAME><TIME_SYSTEM>UTC</TIME_SYSTEM><MEAN_ELEMENT_THEORY>SGP4</MEAN_ELEMENT_THEORY></metadata><data><meanElements><EPOCH>2025-11-18T23:16:27.945696</EPOCH><MEAN_MOTION>12.18261835</MEAN_MOTION><ECCENTRICITY>.0001985</ECCENTRICITY><INCLINATION>52.0028</INCLINATION><RA_OF_ASC_NODE>157.1034</RA_OF_ASC_NODE><ARG_OF_PERICENTER>76.7448</ARG_OF_PERICENTER><MEAN_ANOMALY>71.0212</MEAN_ANOMALY></meanElements><tleParameters><EPHEMERIS_TYPE>0</EPHEMERIS_TYPE><CLASSIFICATION_TYPE>U</CLASSIFICATION_TYPE><NORAD_CAT_ID>31576</NORAD_CAT_ID><ELEMENT_SET_NO>999</ELEMENT_SET_NO><REV_AT_EPOCH>51380</REV_AT_EPOCH><BSTAR>.95898474E-3</BSTAR><MEAN_MOTION_DOT>.6E-7</MEAN_MOTION_DOT><MEAN_MOTION_DDOT>0</MEAN_MOTION_DDOT></tleParameters></data></segment></body></omm>

</ndm>
